ORBCOMM FM06            
1 25118U 97084G   26195.53144279  .00000488  00000+0  17033-3 0  9999
2 25118  45.0138 281.0706 0001457 229.7599 144.8337 14.47626387498351
ORBCOMM FM04            
1 25159U 98007C   26195.98490670  .00000346  00000+0  16415-3 0  9994
2 25159 107.9633 226.6333 0041964 277.2607  82.3764 14.35784297480588
ORBCOMM FM19            
1 25415U 98046C   26196.13414656  .00000415  00000+0  17731-3 0  9999
2 25415  44.9933 110.7126 0003239  62.2230  76.2921 14.39541373460806
ORBCOMM FM20            
1 25416U 98046D   26196.14813328  .00000311  00000+0  14817-3 0  9997
2 25416  44.9933 118.8780 0001392 359.4024   0.6823 14.38100222460818
ORBCOMM FM27            
1 25481U 98053G   26195.39911480  .00000314  00000+0  14598-3 0  9990
2 25481  45.0036 206.1010 0002413 288.3088  71.7498 14.39184080454150
ORBCOMM FM32            
1 25982U 99065C   26194.98412876  .00000273  00000+0  13828-3 0  9998
2 25982  45.0157  46.3955 0005565 186.3791 173.6987 14.37167121390947
ORBCOMM FM109           
1 40086U 14040A   26195.35608055  .00000111  00000+0  59755-4 0  9999
2 40086  47.0043 323.0332 0001531 319.6282  40.4490 14.58872070638319
ORBCOMM FM110           
1 41182U 15081D   26196.04575331  .00000141  00000+0  66035-4 0  9992
2 41182  47.0006 229.7163 0003599 222.3063 137.7545 14.58917715561696
ORBCOMM FM118           
1 41183U 15081E   26196.14866463  .00000044  00000+0  45624-4 0  9996
2 41183  47.0025 229.5677 0002885 186.1442 173.9409 14.58903820561818
ORBCOMM FM112           
1 41184U 15081F   26195.53631945  .00000282  00000+0  95891-4 0  9999
2 41184  46.9980 140.9155 0003755 325.1012  34.9627 14.58938034562947
ORBCOMM FM113           
1 41185U 15081G   26196.19875101  .00000111  00000+0  59625-4 0  9993
2 41185  46.9999 138.1739 0002230 321.4660  38.6066 14.58882057563021
ORBCOMM FM108           
1 41187U 15081J   26196.02377845  .00000268  00000+0  92802-4 0  9996
2 41187  47.0055  50.5822 0002658 321.5969  38.4727 14.58910524564142
ORBCOMM FM117           
1 41188U 15081K   26195.98951134  .00000245  00000+0  88052-4 0  9997
2 41188  47.0018  49.3713 0003074 328.6670  31.4032 14.58897499564188
ORBCOMM FM116           
1 41189U 15081L   26196.17510661  .00000083  00000+0  53674-4 0  9998
2 41189  47.0015 138.2828 0001538 229.7096 130.3655 14.58905811563027
